NORAD_CAT_ID,OBJECT_NAME,OBJECT_TYPE,EPOCH,MEAN_MOTION,ECCENTRICITY,INCLINATION,RA_OF_ASC_NODE,ARG_OF_PERICENTER,MEAN_ANOMALY,BSTAR,MEAN_MOTION_DOT,MEAN_MOTION_DDOT,TLE_LINE0,TLE_LINE1,TLE_LINE2,SEMIMAJOR_AXIS,PERIOD,APOGEE,PERIGEE,DECAYED
49459.0,STARLINK-3141,PAYLOAD,2024-06-23 05:00:41,15.08834773,0.0001526,53.2175,142.524,98.4065,261.7101,2.5279e-05,1.14e-06,0.0,0 STARLINK-3141,1 49459U 21104BD  24175.20881123  .00000114  00000-0  25279-4 0  9998,2 49459  53.2175 142.5240 0001526  98.4065 261.7101 15.08834773145576,6917.896,95.438,540.817,538.706,0.0
49459.0,STARLINK-3141,PAYLOAD,2024-06-23 22:29:55,15.08837865,0.0001591,53.2177,139.2528,101.2813,258.8358,1.8956e-05,1.4e-07,0.0,0 STARLINK-3141,1 49459U 21104BD  24175.93745083  .00000014  00000-0  18956-4 0  9995,2 49459  53.2177 139.2528 0001591 101.2813 258.8358 15.08837865144616,6917.887,95.438,540.853,538.651,0.0
49459.0,STARLINK-3141,PAYLOAD,2024-06-24 06:26:51,15.08842215,0.0001587,53.2178,137.7662,100.4062,259.7109,5.3678e-05,5.66e-06,0.0,0 STARLINK-3141,1 49459U 21104BD  24176.26864730  .00000566  00000-0  53678-4 0  9995,2 49459  53.2178 137.7662 0001587 100.4062 259.7109 15.08842215145734,6917.874,95.437,540.836,538.641,0.0
49459.0,STARLINK-3141,PAYLOAD,2024-06-25 04:42:15,15.08833994,0.0001654,53.2182,133.6062,107.5546,252.5627,3.1371e-05,2.11e-06,0.0,0 STARLINK-3141,1 49459U 21104BD  24177.19601558  .00000211  00000-0  31371-4 0  9998,2 49459  53.2182 133.6062 0001654 107.5546 252.5627 15.08833994145873,6917.899,95.438,540.908,538.62,0.0
49459.0,STARLINK-3141,PAYLOAD,2024-06-26 04:33:02,15.08844939,0.0001452,53.2172,129.1432,92.3856,267.7303,4.8277e-05,4.81e-06,0.0,0 STARLINK-3141,1 49459U 21104BD  24178.18961081  .00000481  00000-0  48277-4 0  9990,2 49459  53.2172 129.1432 0001452  92.3856 267.7303 15.08844939146022,6917.865,95.437,540.735,538.726,0.0
49459.0,STARLINK-3141,PAYLOAD,2024-06-27 02:48:26,15.08837747,0.0001318,53.2172,124.9834,96.6902,263.424,3.6582e-05,2.94e-06,0.0,0 STARLINK-3141,1 49459U 21104BD  24179.11697704  .00000294  00000-0  36582-4 0  9990,2 49459  53.2172 124.9834 0001318  96.6902 263.4240 15.08837747146168,6917.887,95.438,540.664,538.84,0.0
49459.0,STARLINK-3141,PAYLOAD,2024-06-27 13:56:08,15.08840059,0.0001293,53.2174,122.9005,102.4784,257.6353,6.3508e-05,7.23e-06,0.0,0 STARLINK-3141,1 49459U 21104BD  24179.58065541  .00000723  00000-0  63508-4 0  9994,2 49459  53.2174 122.9005 0001293 102.4784 257.6353 15.08840059145163,6917.88,95.438,540.64,538.851,0.0
49459.0,STARLINK-3141,PAYLOAD,2024-06-28 02:39:13,15.08846331,0.0001424,53.2169,120.5211,100.3141,259.8011,3.5605e-05,2.79e-06,0.0,0 STARLINK-3141,1 49459U 21104BD  24180.11057229  .00000279  00000-0  35605-4 0  9992,2 49459  53.2169 120.5211 0001424 100.3141 259.8011 15.08846331146312,6917.861,95.437,540.711,538.741,0.0
49459.0,STARLINK-3141,PAYLOAD,2024-06-29 02:29:59,15.08859182,0.0001173,53.2172,116.0622,105.2605,254.8517,0.00018552,2.667e-05,0.0,0 STARLINK-3141,1 49459U 21104BD  24181.10415714  .00002667  00000-0  18552-3 0  9993,2 49459  53.2172 116.0622 0001173 105.2605 254.8517 15.08859182146462,6917.822,95.436,540.498,538.875,0.0
49459.0,STARLINK-3141,PAYLOAD,2024-06-29 05:40:45,15.08861146,0.0001163,53.2158,115.4662,105.913,254.1991,0.00018388,2.641e-05,0.0,0 STARLINK-3141,1 49459U 21104BD  24181.23663439  .00002641  00000-0  18388-3 0  9995,2 49459  53.2158 115.4662 0001163 105.9130 254.1991 15.08861146145418,6917.816,95.436,540.485,538.876,0.0
49459.0,STARLINK-3141,PAYLOAD,2024-06-29 19:59:16,15.08826122,0.000147,53.2172,112.7901,103.2193,256.8963,-9.0784e-05,-1.732e-05,0.0,0 STARLINK-3141,1 49459U 21104BD  24181.83282706 -.00001732  00000-0 -90784-4 0  9998,2 49459  53.2172 112.7901 0001470 103.2193 256.8963 15.08826122146572,6917.923,95.438,540.805,538.771,0.0
49459.0,STARLINK-3141,PAYLOAD,2024-06-30 11:53:07,15.0883474,0.0001278,53.2175,109.8185,93.3944,266.7194,-4.77e-05,-1.047e-05,0.0,0 STARLINK-3141,1 49459U 21104BD  24182.49522494 -.00001047  00000-0 -47700-4 0  9991,2 49459  53.2175 109.8185 0001278  93.3944 266.7194 15.08834740145609,6917.896,95.438,540.646,538.877,0.0
49459.0,STARLINK-3141,PAYLOAD,2024-07-01 02:11:34,15.08846834,0.0001256,53.2163,107.1428,101.9953,258.118,1.1771e-05,-1.01e-06,0.0,0 STARLINK-3141,1 49459U 21104BD  24183.09137681 -.00000101  00000-0  11771-4 0  9996,2 49459  53.2163 107.1428 0001256 101.9953 258.1180 15.08846834146764,6917.86,95.437,540.593,538.856,0.0
49459.0,STARLINK-3141,PAYLOAD,2024-07-01 11:43:53,15.08845235,0.000116,53.2148,105.3547,77.067,283.0451,0.0001014,1.327e-05,0.0,0 STARLINK-3141,1 49459U 21104BD  24183.48881520  .00001327  00000-0  10140-3 0  9995,2 49459  53.2148 105.3547 0001160  77.0670 283.0451 15.08845235145752,6917.864,95.437,540.532,538.927,0.0
49459.0,STARLINK-3141,PAYLOAD,2024-07-01 22:51:36,15.08827607,0.00016,53.2174,103.2755,88.2137,271.9038,0.00015062,2.109e-05,0.0,0 STARLINK-3141,1 49459U 21104BD  24183.95250946  .00002109  00000-0  15062-3 0  9996,2 49459  53.2174 103.2755 0001600  88.2137 271.9038 15.08827607145828,6917.918,95.438,540.89,538.676,0.0
49459.0,STARLINK-3141,PAYLOAD,2024-07-02 03:37:45,15.08839866,0.0001083,53.2167,102.3844,91.8009,268.3107,0.0002496,3.687e-05,0.0,0 STARLINK-3141,1 49459U 21104BD  24184.15122145  .00003687  00000-0  24960-3 0  9997,2 49459  53.2167 102.3844 0001083  91.8009 268.3107 15.08839866146921,6917.881,95.438,540.495,538.997,0.0
49459.0,STARLINK-3141,PAYLOAD,2024-07-02 11:34:41,15.08833872,0.0001301,53.2182,100.8943,81.805,278.309,0.0001198,1.619e-05,0.0,0 STARLINK-3141,1 49459U 21104BD  24184.48242964  .00001619  00000-0  11980-3 0  9996,2 49459  53.2182 100.8943 0001301  81.8050 278.3090 15.08833872146977,6917.899,95.438,540.664,538.864,0.0
49459.0,STARLINK-3141,PAYLOAD,2024-07-02 22:42:23,15.08839728,0.0001377,53.2175,98.8127,82.7449,277.3699,0.00011287,1.509e-05,0.0,0 STARLINK-3141,1 49459U 21104BD  24184.94610729  .00001509  00000-0  11287-3 0  9993,2 49459  53.2175  98.8127 0001377  82.7449 277.3699 15.08839728145973,6917.881,95.438,540.699,538.794,0.0
49459.0,STARLINK-3141,PAYLOAD,2024-07-03 00:17:46,15.08845914,0.0001198,53.2158,98.5157,76.2884,283.8242,1.7984e-05,-2e-08,0.0,0 STARLINK-3141,1 49459U 21104BD  24185.01234536 -.00000002  00000-0  17984-4 0  9999,2 49459  53.2158  98.5157 0001198  76.2884 283.8242 15.08845914147057,6917.862,95.437,540.556,538.899,0.0
49459.0,STARLINK-3141,PAYLOAD,2024-07-03 17:47:01,15.08838554,0.0001404,53.2165,95.2461,81.7875,278.3276,3.077e-05,2.02e-06,0.0,0 STARLINK-3141,1 49459U 21104BD  24185.74098853  .00000202  00000-0  30770-4 0  9998,2 49459  53.2165  95.2461 0001404  81.7875 278.3276 15.08838554147168,6917.885,95.438,540.721,538.779,0.0
49459.0,STARLINK-3141,PAYLOAD,2024-07-03 22:33:10,15.08834624,0.0001323,53.2172,94.3552,82.4747,277.6395,0.00010293,1.35e-05,0.0,0 STARLINK-3141,1 49459U 21104BD  24185.93971013  .00001350  00000-0  10293-3 0  9999,2 49459  53.2172  94.3552 0001323  82.4747 277.6395 15.08834624146126,6917.897,95.438,540.677,538.847,0.0
49459.0,STARLINK-3141,PAYLOAD,2024-07-04 03:19:19,15.08848959,0.0001251,53.2168,93.4622,93.1692,266.9443,7.0307e-05,8.31e-06,0.0,0 STARLINK-3141,1 49459U 21104BD  24186.13842112  .00000831  00000-0  70307-4 0  9995,2 49459  53.2168  93.4622 0001251  93.1692 266.9443 15.08848959147220,6917.853,95.437,540.583,538.853,0.0
49459.0,STARLINK-3141,PAYLOAD,2024-07-04 11:16:15,15.08844325,0.0001314,53.2178,91.9751,91.5803,268.534,3.7953e-05,3.16e-06,0.0,0 STARLINK-3141,1 49459U 21104BD  24186.46962388  .00000316  00000-0  37953-4 0  9997,2 49459  53.2178  91.9751 0001314  91.5803 268.5340 15.08844325146207,6917.867,95.437,540.641,538.823,0.0
49459.0,STARLINK-3141,PAYLOAD,2024-07-04 22:23:57,15.08842339,0.0001243,53.2187,89.8924,98.7755,261.3378,8.6858e-05,1.095e-05,0.0,0 STARLINK-3141,1 49459U 21104BD  24186.93330344  .00001095  00000-0  86858-4 0  9993,2 49459  53.2187  89.8924 0001243  98.7755 261.3378 15.08842339146273,6917.873,95.437,540.598,538.878,0.0
49459.0,STARLINK-3141,PAYLOAD,2024-07-05 03:10:06,15.08856203,0.0001296,53.2172,88.9999,102.0423,258.0714,7.2773e-05,8.71e-06,0.0,0 STARLINK-3141,1 49459U 21104BD  24187.13201427  .00000871  00000-0  72773-4 0  9997,2 49459  53.2172  88.9999 0001296 102.0423 258.0714 15.08856203147372,6917.831,95.437,540.592,538.799,0.0
49459.0,STARLINK-3141,PAYLOAD,2024-07-05 11:07:03,15.08836905,0.0001749,53.217,87.5162,88.0325,272.0868,1.5456e-05,-4.2e-07,0.0,0 STARLINK-3141,1 49459U 21104BD  24187.46322987 -.00000042  00000-0  15456-4 0  9994,2 49459  53.2170  87.5162 0001749  88.0325 272.0868 15.08836905147423,6917.89,95.438,540.965,538.545,0.0
49459.0,STARLINK-3141,PAYLOAD,2024-07-05 22:14:44,15.08835178,0.0001352,53.2163,85.434,95.4289,264.6857,6.2378e-05,7.05e-06,0.0,0 STARLINK-3141,1 49459U 21104BD  24187.92690950  .00000705  00000-0  62378-4 0  9993,2 49459  53.2163  85.4340 0001352  95.4289 264.6857 15.08835178146426,6917.895,95.438,540.695,538.825,0.0
49459.0,STARLINK-3141,PAYLOAD,2024-07-05 23:50:08,15.08835981,0.0001249,53.2173,85.1377,91.0447,269.0688,8.4938e-05,1.064e-05,0.0,0 STARLINK-3141,1 49459U 21104BD  24187.99314883  .00001064  00000-0  84938-4 0  9993,2 49459  53.2173  85.1377 0001249  91.0447 269.0688 15.08835981146431,6917.893,95.438,540.622,538.894,0.0
49459.0,STARLINK-3141,PAYLOAD,2024-07-06 20:30:08,15.08837631,0.0001559,53.219,81.2699,100.773,259.3438,-3.9748e-06,-3.51e-06,0.0,0 STARLINK-3141,1 49459U 21104BD  24188.85427062 -.00000351  00000-0 -39748-5 0  9993,2 49459  53.2190  81.2699 0001559 100.7730 259.3438 15.08837631147633,6917.888,95.438,540.831,538.674,0.0
49459.0,STARLINK-3141,PAYLOAD,2024-07-06 22:05:32,15.08837913,0.0001558,53.219,80.9726,100.577,259.5398,-1.0823e-06,-3.05e-06,0.0,0 STARLINK-3141,1 49459U 21104BD  24188.92051045 -.00000305  00000-0 -10823-5 0  9997,2 49459  53.2190  80.9726 0001558 100.5770 259.5398 15.08837913146573,6917.887,95.438,540.83,538.674,0.0
